[{"OBJECT_NAME":"STELLA","OBJECT_ID":"1993-061B","EPOCH":"2026-03-09T22:50:14.153280","MEAN_MOTION":14.2746756,"ECCENTRICITY":0.00067535,"INCLINATION":98.784,"RA_OF_ASC_NODE":132.7988,"ARG_OF_PERICENTER":156.9855,"MEAN_ANOMALY":327.7404,"EPHEMERIS_TYPE":0,"CLASSIFICATION_TYPE":"U","NORAD_CAT_ID":22824,"ELEMENT_SET_NO":999,"REV_AT_EPOCH":69061,"BSTAR":7.617075e-6,"MEAN_MOTION_DOT":-2.6e-7,"MEAN_MOTION_DDOT":0},{"OBJECT_NAME":"COSMOS 1275 DEB","OBJECT_ID":"1981-053SK","EPOCH":"2026-03-08T23:00:32.225184","MEAN_MOTION":14.17132242,"ECCENTRICITY":0.00412708,"INCLINATION":83.0779,"RA_OF_ASC_NODE":306.2877,"ARG_OF_PERICENTER":306.816,"MEAN_ANOMALY":52.9236,"EPHEMERIS_TYPE":0,"CLASSIFICATION_TYPE":"U","NORAD_CAT_ID":42171,"ELEMENT_SET_NO":999,"REV_AT_EPOCH":9114,"BSTAR":0.0018214957,"MEAN_MOTION_DOT":3.715e-5,"MEAN_MOTION_DDOT":0}]
